STARLINK-11738 [DTC]    
1 64375U 25127F   25276.55113387  .00343484  00000+0  25612-2 0  9990
2 64375  42.9981 312.1572 0001503 277.4526  82.6171 15.70933159 18785
STARLINK-11745 [DTC]    
1 64376U 25127G   25276.58285713  .00313918  00000+0  23494-2 0  9992
2 64376  42.9985 311.5159 0001374 260.2060  99.8653 15.70933933 18799
STARLINK-11742 [DTC]    
1 64377U 25127H   25276.47161952  .00158324  00000+0  12088-2 0  9994
2 64377  42.9991 312.4115 0001698 270.2637  89.8036 15.70941702 18774
STARLINK-11711 [DTC]    
1 64378U 25127J   25276.56693105  .00317117  00000+0  23755-2 0  9995
2 64378  42.9982 311.3877 0000984 288.5227  71.5534 15.70902399 18907
STARLINK-11743 [DTC]    
1 64379U 25127K   25276.22790468  .00445433  00000+0  32870-2 0  9990
2 64379  42.9976 314.0307 0001170 328.0557  32.0239 15.70877085 18731
STARLINK-11744 [DTC]    
1 64380U 25127L   25276.52989461  .00245765  00000+0  18555-2 0  9998
2 64380  42.9989 311.9860 0000839 282.7154  77.3620 15.70932100 18788
STARLINK-11692 [DTC]    
1 64381U 25127M   25276.57754804  .00361888  00000+0  26910-2 0  9994
2 64381  42.9987 311.4728 0001715 271.5170  88.5501 15.70944371 18902
STARLINK-11740 [DTC]    
1 64382U 25127N   25276.49804093  .00357484  00000+0  26613-2 0  9999
2 64382  42.9998 311.7287 0001812 294.1916  65.8763 15.70929851 18785
STARLINK-34299          
1 64383U 25127P   25276.57261365  .00067669  00000+0  24435-2 0  9991
2 64383  43.0015 347.4820 0001463 276.2478  83.8207 15.27614800 18389
STARLINK-34271          
1 64384U 25127Q   25276.56104533  .00044714  00000+0  16224-2 0  9997
2 64384  43.0036 347.3940 0001993 270.9400  89.1223 15.27623171 18433
STARLINK-34100          
1 64385U 25127R   25276.63028536  .00036204  00000+0  13168-2 0  9993
2 64385  43.0007 347.0537 0001168 268.9761  91.0957 15.27628006 18395
STARLINK-34269          
1 64386U 25127S   25276.51864240  .00044589  00000+0  16173-2 0  9995
2 64386  43.0051 347.0671 0002641 288.2591  71.7973 15.27634474 18431
STARLINK-34351          
1 64387U 25127T   25276.51736053  .00040215  00000+0  14611-2 0  9993
2 64387  43.0028 347.0560 0002697 281.3406  78.7143 15.27619267 18432
STARLINK-34198          
1 64388U 25127U   25276.58145811  .00044810  00000+0  16258-2 0  9991
2 64388  43.0041 346.6830 0002494 276.2992  83.7576 15.27624689 18442
STARLINK-34279          
1 64389U 25127V   25276.51364838  .00050410  00000+0  18256-2 0  9990
2 64389  43.0014 347.8975 0001408 274.1401  85.9290 15.27638891 18427
STARLINK-34292          
1 64390U 25127W   25276.55719179  .00043724  00000+0  15869-2 0  9995
2 64390  43.0050 347.3582 0002278 269.8461  90.2130 15.27623786 18431
STARLINK-34278          
1 64391U 25127X   25276.58658970  .00005183  00000+0  19768-3 0  9990
2 64391  43.0029 346.7160 0001510 275.4568  84.6111 15.27591553 18445
STARLINK-33802          
1 64392U 25127Y   25276.56875399  .00047499  00000+0  17212-2 0  9992
2 64392  43.0007 347.4515 0001584 294.8755  65.1932 15.27642220 18485
ZHANGHENG 1-02 (CSES-2) 
1 64393U 25128A   25274.37568679 -.00000054  00000+0  64702-6 0  9998
2 64393  97.3299  42.6524 0013054 285.4768  74.5026 15.21049766 16587
STARLINK-34419          
1 64412U 25129A   25276.00350775  .00007522  00000+0  63742-3 0  9995
2 64412  70.0000 112.1872 0003083 271.8328  88.2478 14.98336799 17681
STARLINK-34275          
1 64413U 25129B   25275.98279515 -.00003455  00000+0 -28190-3 0  9995
2 64413  70.0003 112.1232 0002716 272.9434  87.1414 14.98334315 17665
STARLINK-34225          
1 64414U 25129C   25276.54593874  .00006726  00000+0  57090-3 0  9999
2 64414  70.0000 110.8735 0002672 270.2629  89.8224 14.98336318 17746
STARLINK-34422          
1 64415U 25129D   25276.52505709  .00002246  00000+0  19584-3 0  9997
2 64415  69.9994 110.8052 0002613 263.5901  96.4961 14.98350943 17686
STARLINK-34514          
1 64416U 25129E   25276.55426060  .00007140  00000+0  60542-3 0  9991
2 64416  70.0004 110.5081 0002549 273.5313  86.5555 14.98339869 17758
STARLINK-34487          
1 64417U 25129F   25276.55843616  .00006565  00000+0  55741-3 0  9997
2 64417  69.9997 110.5194 0002850 268.4119  91.6714 14.98335863 17691
STARLINK-34461          
1 64418U 25129G   25276.27489134  .00006753  00000+0  57312-3 0  9993
2 64418  70.0000 111.5341 0002201 270.8674  89.2233 14.98337891 17702
STARLINK-34512          
1 64419U 25129H   25276.52924388  .00007803  00000+0  66144-3 0  9997
2 64419  70.0000 110.8148 0002798 269.6573  90.4265 14.98307071 17688
STARLINK-34503          
1 64420U 25129J   25276.53360140  .00011842  00000+0  99900-3 0  9994
2 64420  69.9982 110.8277 0002200 252.5969 107.4949 14.98316360 17686
STARLINK-34498          
1 64421U 25129K   25276.52089146  .00031045  00000+0  25951-2 0  9999
2 64421  70.0012 110.7945 0002325 259.5677 100.5220 14.98376775 17745
STARLINK-34434          
1 64422U 25129L   25276.54176551  .00007319  00000+0  62044-3 0  9991
2 64422  70.0006 110.8645 0002696 270.8078  89.2772 14.98335285 17745
