OBJECT_NAME,OBJECT_ID,EPOCH,MEAN_MOTION,ECCENTRICITY,INCLINATION,RA_OF_ASC_NODE,ARG_OF_PERICENTER,MEAN_ANOMALY,EPHEMERIS_TYPE,CLASSIFICATION_TYPE,NORAD_CAT_ID,ELEMENT_SET_NO,REV_AT_EPOCH,BSTAR,MEAN_MOTION_DOT,MEAN_MOTION_DDOT
STARLINK-11738 [DTC],2025-127F,2025-10-03T13:13:37.966368,15.70933159,.00015034,42.9981,312.1572,277.4526,82.6171,0,U,64375,999,1878,.25612161E-2,.343484E-2,0
STARLINK-11745 [DTC],2025-127G,2025-10-03T13:59:18.856032,15.70933933,.00013747,42.9985,311.5159,260.2060,99.8653,0,U,64376,999,1879,.23494078E-2,.313918E-2,0
STARLINK-11742 [DTC],2025-127H,2025-10-03T11:19:07.926528,15.70941702,.00016986,42.9991,312.4115,270.2637,89.8036,0,U,64377,999,1877,.12088135E-2,.158324E-2,0
STARLINK-11711 [DTC],2025-127J,2025-10-03T13:36:22.842720,15.70902399,.00009847,42.9982,311.3877,288.5227,71.5534,0,U,64378,999,1890,.23754943E-2,.317117E-2,0
STARLINK-11743 [DTC],2025-127K,2025-10-03T05:28:10.964352,15.70877085,.00011703,42.9976,314.0307,328.0557,32.0239,0,U,64379,999,1873,.32869593E-2,.445433E-2,0
STARLINK-11744 [DTC],2025-127L,2025-10-03T12:43:02.894304,15.70932100,.00008391,42.9989,311.9860,282.7154,77.3620,0,U,64380,999,1878,.18555161E-2,.245765E-2,0
STARLINK-11692 [DTC],2025-127M,2025-10-03T13:51:40.150656,15.70944371,.0001715,42.9987,311.4728,271.5170,88.5501,0,U,64381,999,1890,.2690973E-2,.361888E-2,0
STARLINK-11740 [DTC],2025-127N,2025-10-03T11:57:10.736352,15.70929851,.00018124,42.9998,311.7287,294.1916,65.8763,0,U,64382,999,1878,.26613225E-2,.357484E-2,0
STARLINK-34299,2025-127P,2025-10-03T13:44:33.819360,15.27614800,.00014637,43.0015,347.4820,276.2478,83.8207,0,U,64383,999,1838,.24434977E-2,.67669E-3,0
STARLINK-34271,2025-127Q,2025-10-03T13:27:54.316512,15.27623171,.00019935,43.0036,347.3940,270.9400,89.1223,0,U,64384,999,1843,.16224282E-2,.44714E-3,0
STARLINK-34100,2025-127R,2025-10-03T15:07:36.655104,15.27628006,.00011689,43.0007,347.0537,268.9761,91.0957,0,U,64385,999,1839,.13167695E-2,.36204E-3,0
STARLINK-34269,2025-127S,2025-10-03T12:26:50.703360,15.27634474,.00026412,43.0051,347.0671,288.2591,71.7973,0,U,64386,999,1843,.16173387E-2,.44589E-3,0
STARLINK-34351,2025-127T,2025-10-03T12:24:59.949792,15.27619267,.0002697,43.0028,347.0560,281.3406,78.7143,0,U,64387,999,1843,.14611447E-2,.40215E-3,0
STARLINK-34198,2025-127U,2025-10-03T13:57:17.980704,15.27624689,.00024948,43.0041,346.6830,276.2992,83.7576,0,U,64388,999,1844,.16257593E-2,.4481E-3,0
STARLINK-34279,2025-127V,2025-10-03T12:19:39.220032,15.27638891,.00014086,43.0014,347.8975,274.1401,85.9290,0,U,64389,999,1842,.18256426E-2,.5041E-3,0
STARLINK-34292,2025-127W,2025-10-03T13:22:21.370656,15.27623786,.00022781,43.0050,347.3582,269.8461,90.2130,0,U,64390,999,1843,.15868528E-2,.43724E-3,0
STARLINK-34278,2025-127X,2025-10-03T14:04:41.350080,15.27591553,.00015105,43.0029,346.7160,275.4568,84.6111,0,U,64391,999,1844,.19767631E-3,.5183E-4,0
STARLINK-33802,2025-127Y,2025-10-03T13:39:00.344736,15.27642220,.00015842,43.0007,347.4515,294.8755,65.1932,0,U,64392,999,1848,.17212477E-2,.47499E-3,0
ZHANGHENG 1-02 (CSES-2),2025-128A,2025-10-01T09:00:59.338656,15.21049766,.00130543,97.3299,42.6524,285.4768,74.5026,0,U,64393,999,1658,.647021E-6,-.54E-6,0
STARLINK-34419,2025-129A,2025-10-03T00:05:03.069600,14.98336799,.0003083,70.0000,112.1872,271.8328,88.2478,0,U,64412,999,1768,.63742318E-3,.7522E-4,0
STARLINK-34275,2025-129B,2025-10-02T23:35:13.500960,14.98334315,.00027166,70.0003,112.1232,272.9434,87.1414,0,U,64413,999,1766,-.28189716E-3,-.3455E-4,0
STARLINK-34225,2025-129C,2025-10-03T13:06:09.107136,14.98336318,.00026722,70.0000,110.8735,270.2629,89.8224,0,U,64414,999,1774,.57089777E-3,.6726E-4,0
STARLINK-34422,2025-129D,2025-10-03T12:36:04.932576,14.98350943,.00026133,69.9994,110.8052,263.5901,96.4961,0,U,64415,999,1768,.19583729E-3,.2246E-4,0
STARLINK-34514,2025-129E,2025-10-03T13:18:08.115840,14.98339869,.00025498,70.0004,110.5081,273.5313,86.5555,0,U,64416,999,1775,.60541824E-3,.714E-4,0
STARLINK-34487,2025-129F,2025-10-03T13:24:08.884224,14.98335863,.00028504,69.9997,110.5194,268.4119,91.6714,0,U,64417,999,1769,.55740651E-3,.6565E-4,0
STARLINK-34461,2025-129G,2025-10-03T06:35:50.611776,14.98337891,.00022016,70.0000,111.5341,270.8674,89.2233,0,U,64418,999,1770,.57311796E-3,.6753E-4,0
STARLINK-34512,2025-129H,2025-10-03T12:42:06.671232,14.98307071,.00027982,70.0000,110.8148,269.6573,90.4265,0,U,64419,999,1768,.66144079E-3,.7803E-4,0
STARLINK-34503,2025-129J,2025-10-03T12:48:23.160960,14.98316360,.00022004,69.9982,110.8277,252.5969,107.4949,0,U,64420,999,1768,.9989952E-3,.11842E-3,0
STARLINK-34498,2025-129K,2025-10-03T12:30:05.022144,14.98376775,.0002325,70.0012,110.7945,259.5677,100.5220,0,U,64421,999,1774,.2595085E-2,.31045E-3,0
STARLINK-34434,2025-129L,2025-10-03T13:00:08.540064,14.98335285,.00026962,70.0006,110.8645,270.8078,89.2772,0,U,64422,999,1774,.62044056E-3,.7319E-4,0
